{
  "hot": [
    {
      "channel": "",
      "departId": 0,
      "districtId": 13,
      "districtName": "北京",
      "districtType": "",
      "isRecomm": "Y",
      "pinYin": "beijingshi",
      "shortPinYin": "bj",
      "status": "",
      "urlPinYin": ""
    },
    {
      "channel": "",
      "departId": 0,
      "districtId": 59,
      "districtName": "常州",
      "districtType": "",
      "isRecomm": "Y",
      "pinYin": "changzhou",
      "shortPinYin": "cz",
      "status": "",
      "urlPinYin": ""
    },
    {
      "channel": "",
      "departId": 0,
      "districtId": 258,
      "districtName": "成都",
      "districtType": "",
      "isRecomm": "Y",
      "pinYin": "chengdu",
      "shortPinYin": "cd",
      "status": "",
      "urlPinYin": ""
    },
    {
      "channel": "",
      "departId": 0,
      "districtId": 31,
      "districtName": "重庆",
      "districtType": "",
      "isRecomm": "Y",
      "pinYin": "chongqing",
      "shortPinYin": "zq",
      "status": "",
      "urlPinYin": ""
    },
    {
      "channel": "",
      "departId": 0,
      "districtId": 322,
      "districtName": "广州",
      "districtType": "",
      "isRecomm": "Y",
      "pinYin": "guangzhou",
      "shortPinYin": "gz",
      "status": "",
      "urlPinYin": ""
    },
    {
      "channel": "",
      "departId": 0,
      "districtId": 221,
      "districtName": "海口",
      "districtType": "",
      "isRecomm": "Y",
      "pinYin": "haikou",
      "shortPinYin": "hk",
      "status": "",
      "urlPinYin": ""
    },
    {
      "channel": "",
      "departId": 0,
      "districtId": 69,
      "districtName": "杭州",
      "districtType": "",
      "isRecomm": "Y",
      "pinYin": "hangzhou",
      "shortPinYin": "hz",
      "status": "",
      "urlPinYin": ""
    },
    {
      "channel": "",
      "departId": 0,
      "districtId": 73,
      "districtName": "湖州",
      "districtType": "",
      "isRecomm": "Y",
      "pinYin": "huzhou",
      "shortPinYin": "hz",
      "status": "",
      "urlPinYin": ""
    },
    {
      "channel": "",
      "departId": 0,
      "districtId": 72,
      "districtName": "嘉兴",
      "districtType": "",
      "isRecomm": "Y",
      "pinYin": "jiaxing",
      "shortPinYin": "jx",
      "status": "",
      "urlPinYin": ""
    },
    {
      "channel": "",
      "departId": 0,
      "districtId": 233,
      "districtName": "昆明",
      "districtType": "",
      "isRecomm": "Y",
      "pinYin": "kunming",
      "shortPinYin": "km",
      "status": "",
      "urlPinYin": ""
    },
    {
      "channel": "",
      "departId": 0,
      "districtId": 56,
      "districtName": "南京",
      "districtType": "",
      "isRecomm": "Y",
      "pinYin": "nanjing",
      "shortPinYin": "nj",
      "status": "",
      "urlPinYin": ""
    },
    {
      "channel": "",
      "departId": 0,
      "districtId": 61,
      "districtName": "南通",
      "districtType": "",
      "isRecomm": "Y",
      "pinYin": "nantong",
      "shortPinYin": "nt",
      "status": "",
      "urlPinYin": ""
    },
    {
      "channel": "",
      "departId": 0,
      "districtId": 175,
      "districtName": "青岛",
      "districtType": "",
      "isRecomm": "Y",
      "pinYin": "qingdao",
      "shortPinYin": "qd",
      "status": "",
      "urlPinYin": ""
    },
    {
      "channel": "",
      "departId": 0,
      "districtId": 257,
      "districtName": "三亚",
      "districtType": "",
      "isRecomm": "Y",
      "pinYin": "sanya",
      "shortPinYin": "sy",
      "status": "",
      "urlPinYin": ""
    },
    {
      "channel": "",
      "departId": 0,
      "districtId": 9,
      "districtName": "上海",
      "districtType": "",
      "isRecomm": "Y",
      "pinYin": "shanghai",
      "shortPinYin": "sh",
      "status": "",
      "urlPinYin": ""
    },
    {
      "channel": "",
      "departId": 0,
      "districtId": 324,
      "districtName": "深圳",
      "districtType": "",
      "isRecomm": "Y",
      "pinYin": "shenzhen",
      "shortPinYin": "sz",
      "status": "",
      "urlPinYin": ""
    },
    {
      "channel": "",
      "departId": 0,
      "districtId": 60,
      "districtName": "苏州",
      "districtType": "",
      "isRecomm": "Y",
      "pinYin": "suzhou",
      "shortPinYin": "sz",
      "status": "",
      "urlPinYin": ""
    },
    {
      "channel": "",
      "departId": 0,
      "districtId": 100,
      "districtName": "太原",
      "districtType": "",
      "isRecomm": "Y",
      "pinYin": "taiyuan",
      "shortPinYin": "ty",
      "status": "",
      "urlPinYin": ""
    },
    {
      "channel": "",
      "departId": 0,
      "districtId": 14,
      "districtName": "天津",
      "districtType": "",
      "isRecomm": "Y",
      "pinYin": "tianjin",
      "shortPinYin": "tj",
      "status": "",
      "urlPinYin": ""
    },
    {
      "channel": "",
      "departId": 0,
      "districtId": 57,
      "districtName": "无锡",
      "districtType": "",
      "isRecomm": "Y",
      "pinYin": "wuxi",
      "shortPinYin": "wx",
      "status": "",
      "urlPinYin": ""
    },
    {
      "channel": "",
      "departId": 0,
      "districtId": 256,
      "districtName": "西安",
      "districtType": "",
      "isRecomm": "Y",
      "pinYin": "xian",
      "shortPinYin": "xa",
      "status": "",
      "urlPinYin": ""
    }
  ],
  "A": [
    {
      "channel": "",
      "departId": 0,
      "districtId": 380,
      "districtName": "阿勒泰",
      "districtType": "",
      "isRecomm": "",
      "pinYin": "aletai",
      "shortPinYin": "alt",
      "status": "",
      "urlPinYin": ""
    },
    {
      "channel": "",
      "departId": 0,
      "districtId": 338,
      "districtName": "安康",
      "districtType": "",
      "isRecomm": "",
      "pinYin": "ankang",
      "shortPinYin": "ak",
      "status": "",
      "urlPinYin": ""
    },
    {
      "channel": "",
      "departId": 0,
      "districtId": 41,
      "districtName": "澳门",
      "districtType": "",
      "isRecomm": "",
      "pinYin": "aomen",
      "shortPinYin": "am",
      "status": "",
      "urlPinYin": ""
    }
  ],
  "B": [
    {
      "channel": "",
      "departId": 0,
      "districtId": 82,
      "districtName": "蚌埠",
      "districtType": "",
      "isRecomm": "",
      "pinYin": "bangbu",
      "shortPinYin": "bb",
      "status": "",
      "urlPinYin": ""
    },
    {
      "channel": "",
      "departId": 0,
      "districtId": 94,
      "districtName": "保定",
      "districtType": "",
      "isRecomm": "",
      "pinYin": "baoding",
      "shortPinYin": "bd",
      "status": "",
      "urlPinYin": ""
    },
    {
      "channel": "",
      "departId": 0,
      "districtId": 332,
      "districtName": "宝鸡",
      "districtType": "",
      "isRecomm": "",
      "pinYin": "baoji",
      "shortPinYin": "bj",
      "status": "",
      "urlPinYin": ""
    },
    {
      "channel": "",
      "departId": 0,
      "districtId": 112,
      "districtName": "包头",
      "districtType": "",
      "isRecomm": "",
      "pinYin": "baotou",
      "shortPinYin": "bt",
      "status": "",
      "urlPinYin": ""
    },
    {
      "channel": "",
      "departId": 0,
      "districtId": 211,
      "districtName": "北海",
      "districtType": "",
      "isRecomm": "",
      "pinYin": "beihai",
      "shortPinYin": "bh",
      "status": "",
      "urlPinYin": ""
    },
    {
      "channel": "",
      "departId": 0,
      "districtId": 13,
      "districtName": "北京",
      "districtType": "",
      "isRecomm": "Y",
      "pinYin": "beijingshi",
      "shortPinYin": "bj",
      "status": "",
      "urlPinYin": ""
    },
    {
      "channel": "",
      "departId": 0,
      "districtId": 189,
      "districtName": "滨州",
      "districtType": "",
      "isRecomm": "",
      "pinYin": "binzhou",
      "shortPinYin": "bz",
      "status": "",
      "urlPinYin": ""
    }
  ],
  "C": [
    {
      "channel": "",
      "departId": 0,
      "districtId": 97,
      "districtName": "沧州",
      "districtType": "",
      "isRecomm": "",
      "pinYin": "cangzhou",
      "shortPinYin": "cz",
      "status": "",
      "urlPinYin": ""
    },
    {
      "channel": "",
      "departId": 0,
      "districtId": 137,
      "districtName": "长春",
      "districtType": "",
      "isRecomm": "",
      "pinYin": "changchun",
      "shortPinYin": "cc",
      "status": "",
      "urlPinYin": ""
    },
    {
      "channel": "",
      "departId": 0,
      "districtId": 314,
      "districtName": "常德",
      "districtType": "",
      "isRecomm": "",
      "pinYin": "changde",
      "shortPinYin": "cd",
      "status": "",
      "urlPinYin": ""
    },
    {
      "channel": "",
      "departId": 0,
      "districtId": 308,
      "districtName": "长沙",
      "districtType": "",
      "isRecomm": "",
      "pinYin": "changsha",
      "shortPinYin": "cs",
      "status": "",
      "urlPinYin": ""
    },
    {
      "channel": "",
      "departId": 0,
      "districtId": 59,
      "districtName": "常州",
      "districtType": "",
      "isRecomm": "Y",
      "pinYin": "changzhou",
      "shortPinYin": "cz",
      "status": "",
      "urlPinYin": ""
    },
    {
      "channel": "",
      "departId": 0,
      "districtId": 258,
      "districtName": "成都",
      "districtType": "",
      "isRecomm": "Y",
      "pinYin": "chengdu",
      "shortPinYin": "cd",
      "status": "",
      "urlPinYin": ""
    },
    {
      "channel": "",
      "departId": 0,
      "districtId": 146,
      "districtName": "滁州",
      "districtType": "",
      "isRecomm": "",
      "pinYin": "chuzhou",
      "shortPinYin": "cz",
      "status": "",
      "urlPinYin": ""
    }
  ],
  "D": [
    {
      "channel": "",
      "departId": 0,
      "districtId": 245,
      "districtName": "大理",
      "districtType": "",
      "isRecomm": "",
      "pinYin": "dali",
      "shortPinYin": "dl",
      "status": "",
      "urlPinYin": ""
    },
    {
      "channel": "",
      "departId": 0,
      "districtId": 124,
      "districtName": "大连",
      "districtType": "",
      "isRecomm": "",
      "pinYin": "dalian",
      "shortPinYin": "dl",
      "status": "",
      "urlPinYin": ""
    },
    {
      "channel": "",
      "departId": 0,
      "districtId": 101,
      "districtName": "大同",
      "districtType": "",
      "isRecomm": "",
      "pinYin": "datong",
      "shortPinYin": "dt",
      "status": "",
      "urlPinYin": ""
    },
    {
      "channel": "",
      "departId": 0,
      "districtId": 272,
      "districtName": "达州",
      "districtType": "",
      "isRecomm": "",
      "pinYin": "dazhou",
      "shortPinYin": "dz",
      "status": "",
      "urlPinYin": ""
    },
    {
      "channel": "",
      "departId": 0,
      "districtId": 187,
      "districtName": "德州",
      "districtType": "",
      "isRecomm": "",
      "pinYin": "dezhou",
      "shortPinYin": "dz",
      "status": "",
      "urlPinYin": ""
    },
    {
      "channel": "",
      "departId": 0,
      "districtId": 202,
      "districtName": "东莞",
      "districtType": "",
      "isRecomm": "",
      "pinYin": "dongguan",
      "shortPinYin": "dg",
      "status": "",
      "urlPinYin": ""
    },
    {
      "channel": "",
      "departId": 0,
      "districtId": 178,
      "districtName": "东营",
      "districtType": "",
      "isRecomm": "",
      "pinYin": "dongying",
      "shortPinYin": "dy",
      "status": "",
      "urlPinYin": ""
    }
  ],
  "E": [],
  "F": [
    {
      "channel": "",
      "departId": 0,
      "districtId": 327,
      "districtName": "佛山",
      "districtType": "",
      "isRecomm": "",
      "pinYin": "foshan",
      "shortPinYin": "fs",
      "status": "",
      "urlPinYin": ""
    },
    {
      "channel": "",
      "departId": 0,
      "districtId": 147,
      "districtName": "阜阳",
      "districtType": "",
      "isRecomm": "",
      "pinYin": "fuyang",
      "shortPinYin": "fy",
      "status": "",
      "urlPinYin": ""
    },
    {
      "channel": "",
      "departId": 0,
      "districtId": 172,
      "districtName": "抚州",
      "districtType": "",
      "isRecomm": "",
      "pinYin": "fuzhou",
      "shortPinYin": "fz",
      "status": "",
      "urlPinYin": ""
    },
    {
      "channel": "",
      "departId": 0,
      "districtId": 154,
      "districtName": "福州",
      "districtType": "",
      "isRecomm": "",
      "pinYin": "fuzhou",
      "shortPinYin": "fz",
      "status": "",
      "urlPinYin": ""
    }
  ],
  "G": [
    {
      "channel": "",
      "departId": 0,
      "districtId": 169,
      "districtName": "赣州",
      "districtType": "",
      "isRecomm": "",
      "pinYin": "ganzhou",
      "shortPinYin": "gz",
      "status": "",
      "urlPinYin": ""
    },
    {
      "channel": "",
      "departId": 0,
      "districtId": 264,
      "districtName": "广元",
      "districtType": "",
      "isRecomm": "",
      "pinYin": "guangyuan",
      "shortPinYin": "gy",
      "status": "",
      "urlPinYin": ""
    },
    {
      "channel": "",
      "departId": 0,
      "districtId": 322,
      "districtName": "广州",
      "districtType": "",
      "isRecomm": "Y",
      "pinYin": "guangzhou",
      "shortPinYin": "gz",
      "status": "",
      "urlPinYin": ""
    },
    {
      "channel": "",
      "departId": 0,
      "districtId": 209,
      "districtName": "桂林",
      "districtType": "",
      "isRecomm": "",
      "pinYin": "guilin",
      "shortPinYin": "gl",
      "status": "",
      "urlPinYin": ""
    },
    {
      "channel": "",
      "departId": 0,
      "districtId": 224,
      "districtName": "贵阳",
      "districtType": "",
      "isRecomm": "",
      "pinYin": "guiyang",
      "shortPinYin": "gy",
      "status": "",
      "urlPinYin": ""
    }
  ],
  "H": [
    {
      "channel": "",
      "departId": 0,
      "districtId": 43,
      "districtName": "哈尔滨",
      "districtType": "",
      "isRecomm": "",
      "pinYin": "haerbin",
      "shortPinYin": "heb",
      "status": "",
      "urlPinYin": ""
    },
    {
      "channel": "",
      "departId": 0,
      "districtId": 221,
      "districtName": "海口",
      "districtType": "",
      "isRecomm": "Y",
      "pinYin": "haikou",
      "shortPinYin": "hk",
      "status": "",
      "urlPinYin": ""
    },
    {
      "channel": "",
      "departId": 0,
      "districtId": 92,
      "districtName": "邯郸",
      "districtType": "",
      "isRecomm": "",
      "pinYin": "handan",
      "shortPinYin": "hd",
      "status": "",
      "urlPinYin": ""
    },
    {
      "channel": "",
      "departId": 0,
      "districtId": 69,
      "districtName": "杭州",
      "districtType": "",
      "isRecomm": "Y",
      "pinYin": "hangzhou",
      "shortPinYin": "hz",
      "status": "",
      "urlPinYin": ""
    },
    {
      "channel": "",
      "departId": 0,
      "districtId": 336,
      "districtName": "汉中",
      "districtType": "",
      "isRecomm": "",
      "pinYin": "hanzhong",
      "shortPinYin": "hz",
      "status": "",
      "urlPinYin": ""
    },
    {
      "channel": "",
      "departId": 0,
      "districtId": 80,
      "districtName": "合肥",
      "districtType": "",
      "isRecomm": "",
      "pinYin": "hefei",
      "shortPinYin": "hf",
      "status": "",
      "urlPinYin": ""
    },
    {
      "channel": "",
      "departId": 0,
      "districtId": 46,
      "districtName": "鹤岗",
      "districtType": "",
      "isRecomm": "",
      "pinYin": "hegang",
      "shortPinYin": "hg",
      "status": "",
      "urlPinYin": ""
    },
    {
      "channel": "",
      "departId": 0,
      "districtId": 99,
      "districtName": "衡水",
      "districtType": "",
      "isRecomm": "",
      "pinYin": "hengshui",
      "shortPinYin": "hs",
      "status": "",
      "urlPinYin": ""
    },
    {
      "channel": "",
      "departId": 0,
      "districtId": 311,
      "districtName": "衡阳",
      "districtType": "",
      "isRecomm": "",
      "pinYin": "hengyang",
      "shortPinYin": "hy",
      "status": "",
      "urlPinYin": ""
    },
    {
      "channel": "",
      "departId": 0,
      "districtId": 190,
      "districtName": "菏泽",
      "districtType": "",
      "isRecomm": "",
      "pinYin": "heze",
      "shortPinYin": "hz",
      "status": "",
      "urlPinYin": ""
    },
    {
      "channel": "",
      "departId": 0,
      "districtId": 63,
      "districtName": "淮安",
      "districtType": "",
      "isRecomm": "",
      "pinYin": "huaian",
      "shortPinYin": "ha",
      "status": "",
      "urlPinYin": ""
    },
    {
      "channel": "",
      "departId": 0,
      "districtId": 85,
      "districtName": "淮北",
      "districtType": "",
      "isRecomm": "",
      "pinYin": "huaibei",
      "shortPinYin": "hb",
      "status": "",
      "urlPinYin": ""
    },
    {
      "channel": "",
      "departId": 0,
      "districtId": 88,
      "districtName": "黄山市",
      "districtType": "",
      "isRecomm": "",
      "pinYin": "huangshanshi",
      "shortPinYin": "hss",
      "status": "",
      "urlPinYin": ""
    },
    {
      "channel": "",
      "departId": 0,
      "districtId": 111,
      "districtName": "呼和浩特",
      "districtType": "",
      "isRecomm": "",
      "pinYin": "huhehaote",
      "shortPinYin": "hhht",
      "status": "",
      "urlPinYin": ""
    },
    {
      "channel": "",
      "departId": 0,
      "districtId": 196,
      "districtName": "惠州",
      "districtType": "",
      "isRecomm": "",
      "pinYin": "huizhou",
      "shortPinYin": "hz",
      "status": "",
      "urlPinYin": ""
    },
    {
      "channel": "",
      "departId": 0,
      "districtId": 117,
      "districtName": "呼伦贝尔",
      "districtType": "",
      "isRecomm": "",
      "pinYin": "hulunbeier",
      "shortPinYin": "hlbe",
      "status": "",
      "urlPinYin": ""
    },
    {
      "channel": "",
      "departId": 0,
      "districtId": 73,
      "districtName": "湖州",
      "districtType": "",
      "isRecomm": "Y",
      "pinYin": "huzhou",
      "shortPinYin": "hz",
      "status": "",
      "urlPinYin": ""
    }
  ],
  "I": [],
  "J": [
    {
      "channel": "",
      "departId": 0,
      "districtId": 170,
      "districtName": "吉安",
      "districtType": "",
      "isRecomm": "",
      "pinYin": "jian",
      "shortPinYin": "ja",
      "status": "",
      "urlPinYin": ""
    },
    {
      "channel": "",
      "departId": 0,
      "districtId": 280,
      "districtName": "焦作",
      "districtType": "",
      "isRecomm": "",
      "pinYin": "jiaozuo",
      "shortPinYin": "jz",
      "status": "",
      "urlPinYin": ""
    },
    {
      "channel": "",
      "departId": 0,
      "districtId": 72,
      "districtName": "嘉兴",
      "districtType": "",
      "isRecomm": "Y",
      "pinYin": "jiaxing",
      "shortPinYin": "jx",
      "status": "",
      "urlPinYin": ""
    },
    {
      "channel": "",
      "departId": 0,
      "districtId": 341,
      "districtName": "嘉峪关",
      "districtType": "",
      "isRecomm": "",
      "pinYin": "jiayuguan",
      "shortPinYin": "jyg",
      "status": "",
      "urlPinYin": ""
    },
    {
      "channel": "",
      "departId": 0,
      "districtId": 19,
      "districtName": "吉林",
      "districtType": "",
      "isRecomm": "",
      "pinYin": "jilin",
      "shortPinYin": "jl",
      "status": "",
      "urlPinYin": ""
    },
    {
      "channel": "",
      "departId": 0,
      "districtId": 174,
      "districtName": "济南",
      "districtType": "",
      "isRecomm": "",
      "pinYin": "jinan",
      "shortPinYin": "jn",
      "status": "",
      "urlPinYin": ""
    },
    {
      "channel": "",
      "departId": 0,
      "districtId": 164,
      "districtName": "景德镇",
      "districtType": "",
      "isRecomm": "",
      "pinYin": "jingdezhen",
      "shortPinYin": "jdz",
      "status": "",
      "urlPinYin": ""
    },
    {
      "channel": "",
      "departId": 0,
      "districtId": 75,
      "districtName": "金华",
      "districtType": "",
      "isRecomm": "",
      "pinYin": "jinhua",
      "shortPinYin": "jh",
      "status": "",
      "urlPinYin": ""
    },
    {
      "channel": "",
      "departId": 0,
      "districtId": 166,
      "districtName": "九江",
      "districtType": "",
      "isRecomm": "",
      "pinYin": "jiujiang",
      "shortPinYin": "jj",
      "status": "",
      "urlPinYin": ""
    },
    {
      "channel": "",
      "departId": 0,
      "districtId": 45,
      "districtName": "鸡西",
      "districtType": "",
      "isRecomm": "",
      "pinYin": "jixi",
      "shortPinYin": "jx",
      "status": "",
      "urlPinYin": ""
    }
  ],
  "K": [
    {
      "channel": "",
      "departId": 0,
      "districtId": 233,
      "districtName": "昆明",
      "districtType": "",
      "isRecomm": "Y",
      "pinYin": "kunming",
      "shortPinYin": "km",
      "status": "",
      "urlPinYin": ""
    }
  ],
  "L": [
    {
      "channel": "",
      "departId": 0,
      "districtId": 340,
      "districtName": "兰州",
      "districtType": "",
      "isRecomm": "",
      "pinYin": "lanzhou",
      "shortPinYin": "lz",
      "status": "",
      "urlPinYin": ""
    },
    {
      "channel": "",
      "departId": 0,
      "districtId": 249,
      "districtName": "拉萨",
      "districtType": "",
      "isRecomm": "",
      "pinYin": "lasa",
      "shortPinYin": "ls",
      "status": "",
      "urlPinYin": ""
    },
    {
      "channel": "",
      "departId": 0,
      "districtId": 62,
      "districtName": "连云港",
      "districtType": "",
      "isRecomm": "",
      "pinYin": "lianyungang",
      "shortPinYin": "lyg",
      "status": "",
      "urlPinYin": ""
    },
    {
      "channel": "",
      "departId": 0,
      "districtId": 188,
      "districtName": "聊城",
      "districtType": "",
      "isRecomm": "",
      "pinYin": "liaocheng",
      "shortPinYin": "lc",
      "status": "",
      "urlPinYin": ""
    },
    {
      "channel": "",
      "departId": 0,
      "districtId": 238,
      "districtName": "丽江",
      "districtType": "",
      "isRecomm": "",
      "pinYin": "lijiang",
      "shortPinYin": "lj",
      "status": "",
      "urlPinYin": ""
    },
    {
      "channel": "",
      "departId": 0,
      "districtId": 186,
      "districtName": "临沂",
      "districtType": "",
      "isRecomm": "",
      "pinYin": "linyi",
      "shortPinYin": "ly",
      "status": "",
      "urlPinYin": ""
    },
    {
      "channel": "",
      "departId": 0,
      "districtId": 79,
      "districtName": "丽水",
      "districtType": "",
      "isRecomm": "",
      "pinYin": "lishui",
      "shortPinYin": "ls",
      "status": "",
      "urlPinYin": ""
    },
    {
      "channel": "",
      "departId": 0,
      "districtId": 150,
      "districtName": "六安",
      "districtType": "",
      "isRecomm": "",
      "pinYin": "liuan",
      "shortPinYin": "la",
      "status": "",
      "urlPinYin": ""
    },
    {
      "channel": "",
      "departId": 0,
      "districtId": 320,
      "districtName": "娄底",
      "districtType": "",
      "isRecomm": "",
      "pinYin": "loudi",
      "shortPinYin": "ld",
      "status": "",
      "urlPinYin": ""
    },
    {
      "channel": "",
      "departId": 0,
      "districtId": 193,
      "districtName": "洛阳",
      "districtType": "",
      "isRecomm": "",
      "pinYin": "luoyang",
      "shortPinYin": "ly",
      "status": "",
      "urlPinYin": ""
    },
    {
      "channel": "",
      "departId": 0,
      "districtId": 261,
      "districtName": "泸州",
      "districtType": "",
      "isRecomm": "",
      "pinYin": "luzhou",
      "shortPinYin": "lz",
      "status": "",
      "urlPinYin": ""
    }
  ],
  "M": [
    {
      "channel": "",
      "departId": 0,
      "districtId": 263,
      "districtName": "绵阳",
      "districtType": "",
      "isRecomm": "",
      "pinYin": "mianyang",
      "shortPinYin": "my",
      "status": "",
      "urlPinYin": ""
    },
    {
      "channel": "",
      "departId": 0,
      "districtId": 52,
      "districtName": "牡丹江",
      "districtType": "",
      "isRecomm": "",
      "pinYin": "mudanjiang",
      "shortPinYin": "mdj",
      "status": "",
      "urlPinYin": ""
    }
  ],
  "N": [
    {
      "channel": "",
      "departId": 0,
      "districtId": 163,
      "districtName": "南昌",
      "districtType": "",
      "isRecomm": "",
      "pinYin": "nanchang",
      "shortPinYin": "nc",
      "status": "",
      "urlPinYin": ""
    },
    {
      "channel": "",
      "departId": 0,
      "districtId": 56,
      "districtName": "南京",
      "districtType": "",
      "isRecomm": "Y",
      "pinYin": "nanjing",
      "shortPinYin": "nj",
      "status": "",
      "urlPinYin": ""
    },
    {
      "channel": "",
      "departId": 0,
      "districtId": 207,
      "districtName": "南宁",
      "districtType": "",
      "isRecomm": "",
      "pinYin": "nanning",
      "shortPinYin": "nn",
      "status": "",
      "urlPinYin": ""
    },
    {
      "channel": "",
      "departId": 0,
      "districtId": 61,
      "districtName": "南通",
      "districtType": "",
      "isRecomm": "Y",
      "pinYin": "nantong",
      "shortPinYin": "nt",
      "status": "",
      "urlPinYin": ""
    },
    {
      "channel": "",
      "departId": 0,
      "districtId": 285,
      "districtName": "南阳",
      "districtType": "",
      "isRecomm": "",
      "pinYin": "nanyang",
      "shortPinYin": "ny",
      "status": "",
      "urlPinYin": ""
    },
    {
      "channel": "",
      "departId": 0,
      "districtId": 70,
      "districtName": "宁波",
      "districtType": "",
      "isRecomm": "",
      "pinYin": "ningbo",
      "shortPinYin": "nb",
      "status": "",
      "urlPinYin": ""
    }
  ],
  "O": [],
  "P": [],
  "Q": [
    {
      "channel": "",
      "departId": 0,
      "districtId": 175,
      "districtName": "青岛",
      "districtType": "",
      "isRecomm": "Y",
      "pinYin": "qingdao",
      "shortPinYin": "qd",
      "status": "",
      "urlPinYin": ""
    },
    {
      "channel": "",
      "departId": 0,
      "districtId": 201,
      "districtName": "清远",
      "districtType": "",
      "isRecomm": "",
      "pinYin": "qingyuan",
      "shortPinYin": "qy",
      "status": "",
      "urlPinYin": ""
    },
    {
      "channel": "",
      "departId": 0,
      "districtId": 91,
      "districtName": "秦皇岛",
      "districtType": "",
      "isRecomm": "",
      "pinYin": "qinhuangdao",
      "shortPinYin": "qhd",
      "status": "",
      "urlPinYin": ""
    },
    {
      "channel": "",
      "departId": 0,
      "districtId": 44,
      "districtName": "齐齐哈尔",
      "districtType": "",
      "isRecomm": "",
      "pinYin": "qiqihaer",
      "shortPinYin": "qqhe",
      "status": "",
      "urlPinYin": ""
    },
    {
      "channel": "",
      "departId": 0,
      "districtId": 158,
      "districtName": "泉州",
      "districtType": "",
      "isRecomm": "",
      "pinYin": "quanzhou",
      "shortPinYin": "qz",
      "status": "",
      "urlPinYin": ""
    },
    {
      "channel": "",
      "departId": 0,
      "districtId": 76,
      "districtName": "衢州",
      "districtType": "",
      "isRecomm": "",
      "pinYin": "quzhou",
      "shortPinYin": "qz",
      "status": "",
      "urlPinYin": ""
    }
  ],
  "R": [
    {
      "channel": "",
      "departId": 0,
      "districtId": 184,
      "districtName": "日照",
      "districtType": "",
      "isRecomm": "",
      "pinYin": "rizhao",
      "shortPinYin": "rz",
      "status": "",
      "urlPinYin": ""
    }
  ],
  "S": [
    {
      "channel": "",
      "departId": 0,
      "districtId": 157,
      "districtName": "三明",
      "districtType": "",
      "isRecomm": "",
      "pinYin": "sanming",
      "shortPinYin": "sm",
      "status": "",
      "urlPinYin": ""
    },
    {
      "channel": "",
      "departId": 0,
      "districtId": 257,
      "districtName": "三亚",
      "districtType": "",
      "isRecomm": "Y",
      "pinYin": "sanya",
      "shortPinYin": "sy",
      "status": "",
      "urlPinYin": ""
    },
    {
      "channel": "",
      "departId": 0,
      "districtId": 9,
      "districtName": "上海",
      "districtType": "",
      "isRecomm": "Y",
      "pinYin": "shanghai",
      "shortPinYin": "sh",
      "status": "",
      "urlPinYin": ""
    },
    {
      "channel": "",
      "departId": 0,
      "districtId": 173,
      "districtName": "上饶",
      "districtType": "",
      "isRecomm": "",
      "pinYin": "shangrao",
      "shortPinYin": "sr",
      "status": "",
      "urlPinYin": ""
    },
    {
      "channel": "",
      "departId": 0,
      "districtId": 326,
      "districtName": "汕头",
      "districtType": "",
      "isRecomm": "",
      "pinYin": "shantou",
      "shortPinYin": "st",
      "status": "",
      "urlPinYin": ""
    },
    {
      "channel": "",
      "departId": 0,
      "districtId": 74,
      "districtName": "绍兴",
      "districtType": "",
      "isRecomm": "",
      "pinYin": "shaoxing",
      "shortPinYin": "sx",
      "status": "",
      "urlPinYin": ""
    },
    {
      "channel": "",
      "departId": 0,
      "districtId": 123,
      "districtName": "沈阳",
      "districtType": "",
      "isRecomm": "",
      "pinYin": "shenyang",
      "shortPinYin": "sy",
      "status": "",
      "urlPinYin": ""
    },
    {
      "channel": "",
      "departId": 0,
      "districtId": 324,
      "districtName": "深圳",
      "districtType": "",
      "isRecomm": "Y",
      "pinYin": "shenzhen",
      "shortPinYin": "sz",
      "status": "",
      "urlPinYin": ""
    },
    {
      "channel": "",
      "departId": 0,
      "districtId": 89,
      "districtName": "石家庄",
      "districtType": "",
      "isRecomm": "",
      "pinYin": "shijiazhuang",
      "shortPinYin": "sjz",
      "status": "",
      "urlPinYin": ""
    },
    {
      "channel": "",
      "departId": 0,
      "districtId": 47,
      "districtName": "双鸭山",
      "districtType": "",
      "isRecomm": "",
      "pinYin": "shuangyashan",
      "shortPinYin": "sys",
      "status": "",
      "urlPinYin": ""
    },
    {
      "channel": "",
      "departId": 0,
      "districtId": 68,
      "districtName": "宿迁",
      "districtType": "",
      "isRecomm": "",
      "pinYin": "suqian",
      "shortPinYin": "sq",
      "status": "",
      "urlPinYin": ""
    },
    {
      "channel": "",
      "departId": 0,
      "districtId": 60,
      "districtName": "苏州",
      "districtType": "",
      "isRecomm": "Y",
      "pinYin": "suzhou",
      "shortPinYin": "sz",
      "status": "",
      "urlPinYin": ""
    }
  ],
  "T": [
    {
      "channel": "",
      "departId": 0,
      "districtId": 182,
      "districtName": "泰安",
      "districtType": "",
      "isRecomm": "",
      "pinYin": "taian",
      "shortPinYin": "ta",
      "status": "",
      "urlPinYin": ""
    },
    {
      "channel": "",
      "departId": 0,
      "districtId": 100,
      "districtName": "太原",
      "districtType": "",
      "isRecomm": "Y",
      "pinYin": "taiyuan",
      "shortPinYin": "ty",
      "status": "",
      "urlPinYin": ""
    },
    {
      "channel": "",
      "departId": 0,
      "districtId": 67,
      "districtName": "泰州",
      "districtType": "",
      "isRecomm": "",
      "pinYin": "taizhou",
      "shortPinYin": "tz",
      "status": "",
      "urlPinYin": ""
    },
    {
      "channel": "",
      "departId": 0,
      "districtId": 78,
      "districtName": "台州",
      "districtType": "",
      "isRecomm": "",
      "pinYin": "taizhou",
      "shortPinYin": "tz",
      "status": "",
      "urlPinYin": ""
    },
    {
      "channel": "",
      "departId": 0,
      "districtId": 90,
      "districtName": "唐山",
      "districtType": "",
      "isRecomm": "",
      "pinYin": "tangshan",
      "shortPinYin": "ts",
      "status": "",
      "urlPinYin": ""
    },
    {
      "channel": "",
      "departId": 0,
      "districtId": 14,
      "districtName": "天津",
      "districtType": "",
      "isRecomm": "Y",
      "pinYin": "tianjin",
      "shortPinYin": "tj",
      "status": "",
      "urlPinYin": ""
    }
  ],
  "U": [],
  "V": [],
  "W": [
    {
      "channel": "",
      "departId": 0,
      "districtId": 180,
      "districtName": "潍坊",
      "districtType": "",
      "isRecomm": "",
      "pinYin": "weifang",
      "shortPinYin": "wf",
      "status": "",
      "urlPinYin": ""
    },
    {
      "channel": "",
      "departId": 0,
      "districtId": 71,
      "districtName": "温州",
      "districtType": "",
      "isRecomm": "",
      "pinYin": "wenzhou",
      "shortPinYin": "wz",
      "status": "",
      "urlPinYin": ""
    },
    {
      "channel": "",
      "departId": 0,
      "districtId": 291,
      "districtName": "武汉",
      "districtType": "",
      "isRecomm": "",
      "pinYin": "wuhan",
      "shortPinYin": "wh",
      "status": "",
      "urlPinYin": ""
    },
    {
      "channel": "",
      "departId": 0,
      "districtId": 81,
      "districtName": "芜湖",
      "districtType": "",
      "isRecomm": "",
      "pinYin": "wuhu",
      "shortPinYin": "wh",
      "status": "",
      "urlPinYin": ""
    },
    {
      "channel": "",
      "departId": 0,
      "districtId": 367,
      "districtName": "乌鲁木齐",
      "districtType": "",
      "isRecomm": "",
      "pinYin": "wulumuqi",
      "shortPinYin": "wlmq",
      "status": "",
      "urlPinYin": ""
    },
    {
      "channel": "",
      "departId": 0,
      "districtId": 57,
      "districtName": "无锡",
      "districtType": "",
      "isRecomm": "Y",
      "pinYin": "wuxi",
      "shortPinYin": "wx",
      "status": "",
      "urlPinYin": ""
    }
  ],
  "X": [
    {
      "channel": "",
      "departId": 0,
      "districtId": 155,
      "districtName": "厦门",
      "districtType": "",
      "isRecomm": "",
      "pinYin": "xiamen",
      "shortPinYin": "xm",
      "status": "",
      "urlPinYin": ""
    },
    {
      "channel": "",
      "departId": 0,
      "districtId": 256,
      "districtName": "西安",
      "districtType": "",
      "isRecomm": "Y",
      "pinYin": "xian",
      "shortPinYin": "xa",
      "status": "",
      "urlPinYin": ""
    },
    {
      "channel": "",
      "departId": 0,
      "districtId": 40,
      "districtName": "香港",
      "districtType": "",
      "isRecomm": "",
      "pinYin": "xianggang",
      "shortPinYin": "xg",
      "status": "",
      "urlPinYin": ""
    },
    {
      "channel": "",
      "departId": 0,
      "districtId": 310,
      "districtName": "湘潭",
      "districtType": "",
      "isRecomm": "",
      "pinYin": "xiangtan",
      "shortPinYin": "xt",
      "status": "",
      "urlPinYin": ""
    },
    {
      "channel": "",
      "departId": 0,
      "districtId": 333,
      "districtName": "咸阳",
      "districtType": "",
      "isRecomm": "",
      "pinYin": "xianyang",
      "shortPinYin": "xy",
      "status": "",
      "urlPinYin": ""
    },
    {
      "channel": "",
      "departId": 0,
      "districtId": 93,
      "districtName": "邢台",
      "districtType": "",
      "isRecomm": "",
      "pinYin": "xingtai",
      "shortPinYin": "xt",
      "status": "",
      "urlPinYin": ""
    },
    {
      "channel": "",
      "departId": 0,
      "districtId": 354,
      "districtName": "西宁",
      "districtType": "",
      "isRecomm": "",
      "pinYin": "xining",
      "shortPinYin": "xn",
      "status": "",
      "urlPinYin": ""
    },
    {
      "channel": "",
      "departId": 0,
      "districtId": 244,
      "districtName": "西双版纳",
      "districtType": "",
      "isRecomm": "",
      "pinYin": "xishuangbanna",
      "shortPinYin": "xsbn",
      "status": "",
      "urlPinYin": ""
    }
  ],
  "Y": [
    {
      "channel": "",
      "departId": 0,
      "districtId": 335,
      "districtName": "延安",
      "districtType": "",
      "isRecomm": "",
      "pinYin": "yanan",
      "shortPinYin": "ya",
      "status": "",
      "urlPinYin": ""
    },
    {
      "channel": "",
      "departId": 0,
      "districtId": 145,
      "districtName": "延边",
      "districtType": "",
      "isRecomm": "",
      "pinYin": "yanbian",
      "shortPinYin": "yb",
      "status": "",
      "urlPinYin": ""
    },
    {
      "channel": "",
      "departId": 0,
      "districtId": 64,
      "districtName": "盐城",
      "districtType": "",
      "isRecomm": "",
      "pinYin": "yancheng",
      "shortPinYin": "yc",
      "status": "",
      "urlPinYin": ""
    },
    {
      "channel": "",
      "departId": 0,
      "districtId": 179,
      "districtName": "烟台",
      "districtType": "",
      "isRecomm": "",
      "pinYin": "yantai",
      "shortPinYin": "yt",
      "status": "",
      "urlPinYin": ""
    },
    {
      "channel": "",
      "departId": 0,
      "districtId": 270,
      "districtName": "宜宾",
      "districtType": "",
      "isRecomm": "",
      "pinYin": "yibin",
      "shortPinYin": "yb",
      "status": "",
      "urlPinYin": ""
    },
    {
      "channel": "",
      "departId": 0,
      "districtId": 294,
      "districtName": "宜昌",
      "districtType": "",
      "isRecomm": "",
      "pinYin": "yichang",
      "shortPinYin": "yc",
      "status": "",
      "urlPinYin": ""
    },
    {
      "channel": "",
      "departId": 0,
      "districtId": 171,
      "districtName": "宜春",
      "districtType": "",
      "isRecomm": "",
      "pinYin": "yichun",
      "shortPinYin": "yc",
      "status": "",
      "urlPinYin": ""
    },
    {
      "channel": "",
      "departId": 0,
      "districtId": 362,
      "districtName": "银川",
      "districtType": "",
      "isRecomm": "",
      "pinYin": "yinchuan",
      "shortPinYin": "yc",
      "status": "",
      "urlPinYin": ""
    },
    {
      "channel": "",
      "departId": 0,
      "districtId": 130,
      "districtName": "营口",
      "districtType": "",
      "isRecomm": "",
      "pinYin": "yingkou",
      "shortPinYin": "yk",
      "status": "",
      "urlPinYin": ""
    },
    {
      "channel": "",
      "departId": 0,
      "districtId": 168,
      "districtName": "鹰潭",
      "districtType": "",
      "isRecomm": "",
      "pinYin": "yingtan",
      "shortPinYin": "yt",
      "status": "",
      "urlPinYin": ""
    },
    {
      "channel": "",
      "departId": 0,
      "districtId": 313,
      "districtName": "岳阳",
      "districtType": "",
      "isRecomm": "",
      "pinYin": "yueyang",
      "shortPinYin": "yy",
      "status": "",
      "urlPinYin": ""
    },
    {
      "channel": "",
      "departId": 0,
      "districtId": 337,
      "districtName": "榆林",
      "districtType": "",
      "isRecomm": "",
      "pinYin": "yulin",
      "shortPinYin": "yl",
      "status": "",
      "urlPinYin": ""
    }
  ],
  "Z": [
    {
      "channel": "",
      "departId": 0,
      "districtId": 31,
      "districtName": "重庆",
      "districtType": "",
      "isRecomm": "Y",
      "pinYin": "chongqing",
      "shortPinYin": "zq",
      "status": "",
      "urlPinYin": ""
    },
    {
      "channel": "",
      "departId": 0,
      "districtId": 315,
      "districtName": "张家界",
      "districtType": "",
      "isRecomm": "",
      "pinYin": "zhangjiajie",
      "shortPinYin": "zjj",
      "status": "",
      "urlPinYin": ""
    },
    {
      "channel": "",
      "departId": 0,
      "districtId": 159,
      "districtName": "漳州",
      "districtType": "",
      "isRecomm": "",
      "pinYin": "zhangzhou",
      "shortPinYin": "zz",
      "status": "",
      "urlPinYin": ""
    },
    {
      "channel": "",
      "departId": 0,
      "districtId": 191,
      "districtName": "郑州",
      "districtType": "",
      "isRecomm": "",
      "pinYin": "zhengzhou",
      "shortPinYin": "zz",
      "status": "",
      "urlPinYin": ""
    },
    {
      "channel": "",
      "departId": 0,
      "districtId": 203,
      "districtName": "中山",
      "districtType": "",
      "isRecomm": "",
      "pinYin": "zhongshan",
      "shortPinYin": "zs",
      "status": "",
      "urlPinYin": ""
    },
    {
      "channel": "",
      "departId": 0,
      "districtId": 77,
      "districtName": "舟山",
      "districtType": "",
      "isRecomm": "",
      "pinYin": "zhoushan",
      "shortPinYin": "zs",
      "status": "",
      "urlPinYin": ""
    },
    {
      "channel": "",
      "departId": 0,
      "districtId": 325,
      "districtName": "珠海",
      "districtType": "",
      "isRecomm": "",
      "pinYin": "zhuhai",
      "shortPinYin": "zh",
      "status": "",
      "urlPinYin": ""
    },
    {
      "channel": "",
      "departId": 0,
      "districtId": 309,
      "districtName": "株洲",
      "districtType": "",
      "isRecomm": "",
      "pinYin": "zhuzhou",
      "shortPinYin": "zz",
      "status": "",
      "urlPinYin": ""
    },
    {
      "channel": "",
      "departId": 0,
      "districtId": 176,
      "districtName": "淄博",
      "districtType": "",
      "isRecomm": "",
      "pinYin": "zibo",
      "shortPinYin": "zb",
      "status": "",
      "urlPinYin": ""
    }
  ]
}
